ONEWEB-0685             
1 54679U 22166AP  26192.08798355 -.00000660  00000+0 -16294-2 0  9990
2 54679  87.9231 239.2228 0001647  87.5811 272.5511 13.21851429174572
ONEWEB-0712             
1 54680U 22166AQ  26191.08709083  .00000093  00000+0  20869-3 0  9993
2 54680  87.9084 224.2263 0001753 106.9555 253.1769 13.16595460175072
ONEWEB-0714             
1 54681U 22166AR  26192.09334750  .00000041  00000+0  68432-4 0  9993
2 54681  87.9235 239.2205 0002026 106.5788 253.5568 13.21825423174690
ONEWEB-0532             
1 55140U 23004A   26191.42084496  .00000036  00000+0  60304-4 0  9995
2 55140  87.9132   1.2413 0002029  82.3139 277.8223 13.17648323170644
ONEWEB-0533             
1 55141U 23004B   26191.40479486  .00000178  00000+0  45893-3 0  9993
2 55141  87.8958 346.0533 0001671  92.1698 267.9622 13.12443273171101
ONEWEB-0541             
1 55142U 23004C   26191.45281476 -.00000241  00000+0 -71551-3 0  9992
2 55142  87.8889  16.4267 0002029  89.6645 270.4716 13.11414310168993
ONEWEB-0543             
1 55143U 23004D   26190.62331460  .00000050  00000+0  94039-4 0  9993
2 55143  87.9181 331.0059 0001787 105.0538 255.0792 13.18686634172657
ONEWEB-0544             
1 55144U 23004E   26190.61656907 -.00000003  00000+0 -40377-4 0  9995
2 55144  87.9177 331.0070 0001982 102.6328 257.5026 13.18687306172657
ONEWEB-0560             
1 55145U 23004F   26191.36858390  .00000062  00000+0  12517-3 0  9996
2 55145  87.9182 330.8470 0001987 105.5752 254.5600 13.18684401172763
ONEWEB-0565             
1 55146U 23004G   26191.36185284  .00000040  00000+0  69692-4 0  9995
2 55146  87.9172 330.8741 0002271  96.6077 263.5313 13.18686474172753
ONEWEB-0567             
1 55147U 23004H   26191.35510385  .00000059  00000+0  11566-3 0  9995
2 55147  87.9182 330.8619 0002225 100.9194 259.2189 13.18686866172755
ONEWEB-0569             
1 55148U 23004J   26191.31846285  .00000272  00000+0  71113-3 0  9994
2 55148  87.8987 315.6176 0002468 116.8634 243.2747 13.13470505173212
ONEWEB-0570             
1 55149U 23004K   26191.34667160  .00000072  00000+0  14981-3 0  9999
2 55149  87.9179 330.8607 0002102  87.4225 272.7148 13.18686579172743
ONEWEB-0571             
1 55150U 23004L   26191.33993651  .00000079  00000+0  16678-3 0  9999
2 55150  87.9179 330.8620 0003094 105.9160 254.2314 13.18685901172754
ONEWEB-0572             
1 55151U 23004M   26191.45206562  .00000071  00000+0  15082-3 0  9991
2 55151  87.9136   1.2365 0002016  92.3467 267.7896 13.17650940170548
ONEWEB-0573             
1 55152U 23004N   26190.65028444 -.00000057  00000+0 -17719-3 0  9999
2 55152  87.9180 331.0011 0002727 100.7847 259.3592 13.18687007172654
