{"fetched_at":"2026-07-11T09:23:57.375Z","source":"https://celestrak.org/NORAD/elements/gp.php?GROUP=oneweb&FORMAT=JSON","constellation":"oneweb","records":[{"OBJECT_NAME":"ONEWEB-0685","OBJECT_ID":"2022-166AP","EPOCH":"2026-07-11T02:06:41.778720","CLASSIFICATION_TYPE":"U","MEAN_MOTION":13.21851429,"ECCENTRICITY":0.0001647,"INCLINATION":87.9231,"RA_OF_ASC_NODE":239.2228,"ARG_OF_PERICENTER":87.5811,"MEAN_ANOMALY":272.5511,"EPHEMERIS_TYPE":0,"NORAD_CAT_ID":54679,"ELEMENT_SET_NO":999,"REV_AT_EPOCH":17457,"BSTAR":-0.0016294,"MEAN_MOTION_DOT":-0.0000066,"MEAN_MOTION_DDOT":0},{"OBJECT_NAME":"ONEWEB-0712","OBJECT_ID":"2022-166AQ","EPOCH":"2026-07-10T02:05:24.647712","CLASSIFICATION_TYPE":"U","MEAN_MOTION":13.1659546,"ECCENTRICITY":0.00017535,"INCLINATION":87.9084,"RA_OF_ASC_NODE":224.2263,"ARG_OF_PERICENTER":106.9555,"MEAN_ANOMALY":253.1769,"EPHEMERIS_TYPE":0,"NORAD_CAT_ID":54680,"ELEMENT_SET_NO":999,"REV_AT_EPOCH":17507,"BSTAR":0.00020868944,"MEAN_MOTION_DOT":9.3e-7,"MEAN_MOTION_DDOT":0},{"OBJECT_NAME":"ONEWEB-0714","OBJECT_ID":"2022-166AR","EPOCH":"2026-07-11T02:14:25.224000","CLASSIFICATION_TYPE":"U","MEAN_MOTION":13.21825423,"ECCENTRICITY":0.0002026,"INCLINATION":87.9235,"RA_OF_ASC_NODE":239.2205,"ARG_OF_PERICENTER":106.5788,"MEAN_ANOMALY":253.5568,"EPHEMERIS_TYPE":0,"NORAD_CAT_ID":54681,"ELEMENT_SET_NO":999,"REV_AT_EPOCH":17469,"BSTAR":0.000068432,"MEAN_MOTION_DOT":4.1e-7,"MEAN_MOTION_DDOT":0},{"OBJECT_NAME":"ONEWEB-0532","OBJECT_ID":"2023-004A","EPOCH":"2026-07-10T10:06:01.004544","CLASSIFICATION_TYPE":"U","MEAN_MOTION":13.17648323,"ECCENTRICITY":0.00020298,"INCLINATION":87.9132,"RA_OF_ASC_NODE":1.2413,"ARG_OF_PERICENTER":82.3139,"MEAN_ANOMALY":277.8223,"EPHEMERIS_TYPE":0,"NORAD_CAT_ID":55140,"ELEMENT_SET_NO":999,"REV_AT_EPOCH":17064,"BSTAR":0.000060303617,"MEAN_MOTION_DOT":3.6e-7,"MEAN_MOTION_DDOT":0},{"OBJECT_NAME":"ONEWEB-0533","OBJECT_ID":"2023-004B","EPOCH":"2026-07-10T09:42:54.275904","CLASSIFICATION_TYPE":"U","MEAN_MOTION":13.12443273,"ECCENTRICITY":0.00016713,"INCLINATION":87.8958,"RA_OF_ASC_NODE":346.0533,"ARG_OF_PERICENTER":92.1698,"MEAN_ANOMALY":267.9622,"EPHEMERIS_TYPE":0,"NORAD_CAT_ID":55141,"ELEMENT_SET_NO":999,"REV_AT_EPOCH":17110,"BSTAR":0.00045893123,"MEAN_MOTION_DOT":0.00000178,"MEAN_MOTION_DDOT":0},{"OBJECT_NAME":"ONEWEB-0541","OBJECT_ID":"2023-004C","EPOCH":"2026-07-10T10:52:03.195264","CLASSIFICATION_TYPE":"U","MEAN_MOTION":13.1141431,"ECCENTRICITY":0.00020292,"INCLINATION":87.8889,"RA_OF_ASC_NODE":16.4267,"ARG_OF_PERICENTER":89.6645,"MEAN_ANOMALY":270.4716,"EPHEMERIS_TYPE":0,"NORAD_CAT_ID":55142,"ELEMENT_SET_NO":999,"REV_AT_EPOCH":16899,"BSTAR":-0.00071551068,"MEAN_MOTION_DOT":-0.00000241,"MEAN_MOTION_DDOT":0},{"OBJECT_NAME":"ONEWEB-0543","OBJECT_ID":"2023-004D","EPOCH":"2026-07-09T14:57:34.381440","CLASSIFICATION_TYPE":"U","MEAN_MOTION":13.18686634,"ECCENTRICITY":0.00017873,"INCLINATION":87.9181,"RA_OF_ASC_NODE":331.0059,"ARG_OF_PERICENTER":105.0538,"MEAN_ANOMALY":255.0792,"EPHEMERIS_TYPE":0,"NORAD_CAT_ID":55143,"ELEMENT_SET_NO":999,"REV_AT_EPOCH":17265,"BSTAR":0.000094038845,"MEAN_MOTION_DOT":5e-7,"MEAN_MOTION_DDOT":0},{"OBJECT_NAME":"ONEWEB-0544","OBJECT_ID":"2023-004E","EPOCH":"2026-07-09T14:47:51.567648","CLASSIFICATION_TYPE":"U","MEAN_MOTION":13.18687306,"ECCENTRICITY":0.0001982,"INCLINATION":87.9177,"RA_OF_ASC_NODE":331.007,"ARG_OF_PERICENTER":102.6328,"MEAN_ANOMALY":257.5026,"EPHEMERIS_TYPE":0,"NORAD_CAT_ID":55144,"ELEMENT_SET_NO":999,"REV_AT_EPOCH":17265,"BSTAR":-0.000040376638,"MEAN_MOTION_DOT":-3e-8,"MEAN_MOTION_DDOT":0},{"OBJECT_NAME":"ONEWEB-0560","OBJECT_ID":"2023-004F","EPOCH":"2026-07-10T08:50:45.648960","CLASSIFICATION_TYPE":"U","MEAN_MOTION":13.18684401,"ECCENTRICITY":0.00019878,"INCLINATION":87.9182,"RA_OF_ASC_NODE":330.847,"ARG_OF_PERICENTER":105.5752,"MEAN_ANOMALY":254.56,"EPHEMERIS_TYPE":0,"NORAD_CAT_ID":55145,"ELEMENT_SET_NO":999,"REV_AT_EPOCH":17276,"BSTAR":0.00012516541,"MEAN_MOTION_DOT":6.2e-7,"MEAN_MOTION_DDOT":0},{"OBJECT_NAME":"ONEWEB-0565","OBJECT_ID":"2023-004G","EPOCH":"2026-07-10T08:41:04.085376","CLASSIFICATION_TYPE":"U","MEAN_MOTION":13.18686474,"ECCENTRICITY":0.00022714,"INCLINATION":87.9172,"RA_OF_ASC_NODE":330.8741,"ARG_OF_PERICENTER":96.6077,"MEAN_ANOMALY":263.5313,"EPHEMERIS_TYPE":0,"NORAD_CAT_ID":55146,"ELEMENT_SET_NO":999,"REV_AT_EPOCH":17275,"BSTAR":0.00006969155,"MEAN_MOTION_DOT":4e-7,"MEAN_MOTION_DDOT":0},{"OBJECT_NAME":"ONEWEB-0567","OBJECT_ID":"2023-004H","EPOCH":"2026-07-10T08:31:20.972640","CLASSIFICATION_TYPE":"U","MEAN_MOTION":13.18686866,"ECCENTRICITY":0.00022251,"INCLINATION":87.9182,"RA_OF_ASC_NODE":330.8619,"ARG_OF_PERICENTER":100.9194,"MEAN_ANOMALY":259.2189,"EPHEMERIS_TYPE":0,"NORAD_CAT_ID":55147,"ELEMENT_SET_NO":999,"REV_AT_EPOCH":17275,"BSTAR":0.00011566446,"MEAN_MOTION_DOT":5.9e-7,"MEAN_MOTION_DDOT":0},{"OBJECT_NAME":"ONEWEB-0569","OBJECT_ID":"2023-004J","EPOCH":"2026-07-10T07:38:35.190240","CLASSIFICATION_TYPE":"U","MEAN_MOTION":13.13470505,"ECCENTRICITY":0.0002468,"INCLINATION":87.8987,"RA_OF_ASC_NODE":315.6176,"ARG_OF_PERICENTER":116.8634,"MEAN_ANOMALY":243.2747,"EPHEMERIS_TYPE":0,"NORAD_CAT_ID":55148,"ELEMENT_SET_NO":999,"REV_AT_EPOCH":17321,"BSTAR":0.00071112681,"MEAN_MOTION_DOT":0.00000272,"MEAN_MOTION_DDOT":0},{"OBJECT_NAME":"ONEWEB-0570","OBJECT_ID":"2023-004K","EPOCH":"2026-07-10T08:19:12.426240","CLASSIFICATION_TYPE":"U","MEAN_MOTION":13.18686579,"ECCENTRICITY":0.00021029,"INCLINATION":87.9179,"RA_OF_ASC_NODE":330.8607,"ARG_OF_PERICENTER":87.4225,"MEAN_ANOMALY":272.7148,"EPHEMERIS_TYPE":0,"NORAD_CAT_ID":55149,"ELEMENT_SET_NO":999,"REV_AT_EPOCH":17274,"BSTAR":0.00014980876,"MEAN_MOTION_DOT":7.2e-7,"MEAN_MOTION_DDOT":0},{"OBJECT_NAME":"ONEWEB-0571","OBJECT_ID":"2023-004L","EPOCH":"2026-07-10T08:09:30.514464","CLASSIFICATION_TYPE":"U","MEAN_MOTION":13.18685901,"ECCENTRICITY":0.00030948,"INCLINATION":87.9179,"RA_OF_ASC_NODE":330.862,"ARG_OF_PERICENTER":105.916,"MEAN_ANOMALY":254.2314,"EPHEMERIS_TYPE":0,"NORAD_CAT_ID":55150,"ELEMENT_SET_NO":999,"REV_AT_EPOCH":17275,"BSTAR":0.00016677979,"MEAN_MOTION_DOT":7.9e-7,"MEAN_MOTION_DDOT":0},{"OBJECT_NAME":"ONEWEB-0572","OBJECT_ID":"2023-004M","EPOCH":"2026-07-10T10:50:58.469568","CLASSIFICATION_TYPE":"U","MEAN_MOTION":13.1765094,"ECCENTRICITY":0.00020169,"INCLINATION":87.9136,"RA_OF_ASC_NODE":1.2365,"ARG_OF_PERICENTER":92.3467,"MEAN_ANOMALY":267.7896,"EPHEMERIS_TYPE":0,"NORAD_CAT_ID":55151,"ELEMENT_SET_NO":999,"REV_AT_EPOCH":17054,"BSTAR":0.0001508222,"MEAN_MOTION_DOT":7.1e-7,"MEAN_MOTION_DDOT":0},{"OBJECT_NAME":"ONEWEB-0573","OBJECT_ID":"2023-004N","EPOCH":"2026-07-09T15:36:24.575616","CLASSIFICATION_TYPE":"U","MEAN_MOTION":13.18687007,"ECCENTRICITY":0.0002727,"INCLINATION":87.918,"RA_OF_ASC_NODE":331.0011,"ARG_OF_PERICENTER":100.7847,"MEAN_ANOMALY":259.3592,"EPHEMERIS_TYPE":0,"NORAD_CAT_ID":55152,"ELEMENT_SET_NO":999,"REV_AT_EPOCH":17265,"BSTAR":-0.00017718814,"MEAN_MOTION_DOT":-5.7e-7,"MEAN_MOTION_DDOT":0}]}
